[
  {
    "COMMENT": "GENERATED VIA SPACETRACK.ORG API",
    "ORIGINATOR": "18 SPCS",
    "NORAD_CAT_ID": "41240",
    "OBJECT_NAME": "JASON 3",
    "OBJECT_TYPE": "PAYLOAD",
    "CLASSIFICATION_TYPE": "U",
    "INTLDES": "16002A",
    "EPOCH": "2023-04-23 12:22:40",
    "EPOCH_MICROSECONDS": "359360",
    "MEAN_MOTION": "12.80929547",
    "ECCENTRICITY": "0.0007712",
    "INCLINATION": "66.0444",
    "RA_OF_ASC_NODE": "5.0695",
    "ARG_OF_PERICENTER": "273.7511",
    "MEAN_ANOMALY": "86.2622",
    "EPHEMERIS_TYPE": "0",
    "ELEMENT_SET_NO": "999",
    "REV_AT_EPOCH": "33962",
    "BSTAR": "0.00027215",
    "MEAN_MOTION_DOT": "0.00000002",
    "MEAN_MOTION_DDOT": "0",
    "FILE": "3892688",
    "TLE_LINE0": "0 JASON 3",
    "TLE_LINE1": "1 41240U 16002A   23113.51574490  .00000002  00000-0  27215-3 0  9997",
    "TLE_LINE2": "2 41240  66.0444   5.0695 0007712 273.7511  86.2622 12.80929547339621",
    "OBJECT_ID": "2016-002A",
    "OBJECT_NUMBER": "41240",
    "SEMIMAJOR_AXIS": "7715.872",
    "PERIOD": "112.418",
    "APOGEE": "1343.687",
    "PERIGEE": "1331.786",
    "DECAYED": "0"
  },
  {
    "COMMENT": "GENERATED VIA SPACETRACK.ORG API",
    "ORIGINATOR": "18 SPCS",
    "NORAD_CAT_ID": "41240",
    "OBJECT_NAME": "JASON 3",
    "OBJECT_TYPE": "PAYLOAD",
    "CLASSIFICATION_TYPE": "U",
    "INTLDES": "16002A",
    "EPOCH": "2023-04-23 21:44:49",
    "EPOCH_MICROSECONDS": "173216",
    "MEAN_MOTION": "12.80929626",
    "ECCENTRICITY": "0.0007707",
    "INCLINATION": "66.0444",
    "RA_OF_ASC_NODE": "4.2587",
    "ARG_OF_PERICENTER": "273.716",
    "MEAN_ANOMALY": "86.2974",
    "EPHEMERIS_TYPE": "0",
    "ELEMENT_SET_NO": "999",
    "REV_AT_EPOCH": "33967",
    "BSTAR": "0.00029933",
    "MEAN_MOTION_DOT": "0.00000008",
    "MEAN_MOTION_DDOT": "0",
    "FILE": "3892831",
    "TLE_LINE0": "0 JASON 3",
    "TLE_LINE1": "1 41240U 16002A   23113.90612469  .00000008  00000-0  29933-3 0  9994",
    "TLE_LINE2": "2 41240  66.0444   4.2587 0007707 273.7160  86.2974 12.80929626339679",
    "OBJECT_ID": "2016-002A",
    "OBJECT_NUMBER": "41240",
    "SEMIMAJOR_AXIS": "7715.872",
    "PERIOD": "112.418",
    "APOGEE": "1343.683",
    "PERIGEE": "1331.790",
    "DECAYED": "0"
  },
  {
    "COMMENT": "GENERATED VIA SPACETRACK.ORG API",
    "ORIGINATOR": "18 SPCS",
    "NORAD_CAT_ID": "41240",
    "OBJECT_NAME": "JASON 3",
    "OBJECT_TYPE": "PAYLOAD",
    "CLASSIFICATION_TYPE": "U",
    "INTLDES": "16002A",
    "EPOCH": "2023-04-24 03:22:06",
    "EPOCH_MICROSECONDS": "450816",
    "MEAN_MOTION": "12.80929871",
    "ECCENTRICITY": "0.0007701",
    "INCLINATION": "66.0443",
    "RA_OF_ASC_NODE": "3.7723",
    "ARG_OF_PERICENTER": "273.6964",
    "MEAN_ANOMALY": "86.3171",
    "EPHEMERIS_TYPE": "0",
    "ELEMENT_SET_NO": "999",
    "REV_AT_EPOCH": "33984",
    "BSTAR": "0.00043457",
    "MEAN_MOTION_DOT": "0.00000039",
    "MEAN_MOTION_DDOT": "0",
    "FILE": "3892909",
    "TLE_LINE0": "0 JASON 3",
    "TLE_LINE1": "1 41240U 16002A   23114.14035244  .00000039  00000-0  43457-3 0  9992",
    "TLE_LINE2": "2 41240  66.0443   3.7723 0007701 273.6964  86.3171 12.80929871339840",
    "OBJECT_ID": "2016-002A",
    "OBJECT_NUMBER": "41240",
    "SEMIMAJOR_AXIS": "7715.871",
    "PERIOD": "112.418",
    "APOGEE": "1343.678",
    "PERIGEE": "1331.794",
    "DECAYED": "0"
  },
  {
    "COMMENT": "GENERATED VIA SPACETRACK.ORG API",
    "ORIGINATOR": "18 SPCS",
    "NORAD_CAT_ID": "41240",
    "OBJECT_NAME": "JASON 3",
    "OBJECT_TYPE": "PAYLOAD",
    "CLASSIFICATION_TYPE": "U",
    "INTLDES": "16002A",
    "EPOCH": "2023-04-24 14:36:41",
    "EPOCH_MICROSECONDS": "34528",
    "MEAN_MOTION": "12.80929803",
    "ECCENTRICITY": "0.0007696",
    "INCLINATION": "66.0443",
    "RA_OF_ASC_NODE": "2.7995",
    "ARG_OF_PERICENTER": "273.6702",
    "MEAN_ANOMALY": "86.3433",
    "EPHEMERIS_TYPE": "0",
    "ELEMENT_SET_NO": "999",
    "REV_AT_EPOCH": "33976",
    "BSTAR": "0.00031992",
    "MEAN_MOTION_DOT": "0.00000013",
    "MEAN_MOTION_DDOT": "0",
    "FILE": "3893330",
    "TLE_LINE0": "0 JASON 3",
    "TLE_LINE1": "1 41240U 16002A   23114.60880827  .00000013  00000-0  31992-3 0  9991",
    "TLE_LINE2": "2 41240  66.0443   2.7995 0007696 273.6702  86.3433 12.80929803339760",
    "OBJECT_ID": "2016-002A",
    "OBJECT_NUMBER": "41240",
    "SEMIMAJOR_AXIS": "7715.871",
    "PERIOD": "112.418",
    "APOGEE": "1343.674",
    "PERIGEE": "1331.798",
    "DECAYED": "0"
  },
  {
    "COMMENT": "GENERATED VIA SPACETRACK.ORG API",
    "ORIGINATOR": "18 SPCS",
    "NORAD_CAT_ID": "41240",
    "OBJECT_NAME": "JASON 3",
    "OBJECT_TYPE": "PAYLOAD",
    "CLASSIFICATION_TYPE": "U",
    "INTLDES": "16002A",
    "EPOCH": "2023-04-25 13:05:50",
    "EPOCH_MICROSECONDS": "197632",
    "MEAN_MOTION": "12.80929759",
    "ECCENTRICITY": "0.0007691",
    "INCLINATION": "66.0442",
    "RA_OF_ASC_NODE": "0.8536",
    "ARG_OF_PERICENTER": "273.6796",
    "MEAN_ANOMALY": "86.3339",
    "EPHEMERIS_TYPE": "0",
    "ELEMENT_SET_NO": "999",
    "REV_AT_EPOCH": "33988",
    "BSTAR": "0.00021492",
    "MEAN_MOTION_DOT": "-0.00000011",
    "MEAN_MOTION_DDOT": "0",
    "FILE": "3894092",
    "TLE_LINE0": "0 JASON 3",
    "TLE_LINE1": "1 41240U 16002A   23115.54571988 -.00000011  00000-0  21492-3 0  9993",
    "TLE_LINE2": "2 41240  66.0442   0.8536 0007691 273.6796  86.3339 12.80929759339885",
    "OBJECT_ID": "2016-002A",
    "OBJECT_NUMBER": "41240",
    "SEMIMAJOR_AXIS": "7715.871",
    "PERIOD": "112.418",
    "APOGEE": "1343.670",
    "PERIGEE": "1331.802",
    "DECAYED": "0"
  },
  {
    "COMMENT": "GENERATED VIA SPACETRACK.ORG API",
    "ORIGINATOR": "18 SPCS",
    "NORAD_CAT_ID": "41240",
    "OBJECT_NAME": "JASON 3",
    "OBJECT_TYPE": "PAYLOAD",
    "CLASSIFICATION_TYPE": "U",
    "INTLDES": "16002A",
    "EPOCH": "2023-04-26 15:19:50",
    "EPOCH_MICROSECONDS": "867616",
    "MEAN_MOTION": "12.80929861",
    "ECCENTRICITY": "0.0007681",
    "INCLINATION": "66.0441",
    "RA_OF_ASC_NODE": "358.5835",
    "ARG_OF_PERICENTER": "273.6388",
    "MEAN_ANOMALY": "86.3749",
    "EPHEMERIS_TYPE": "0",
    "ELEMENT_SET_NO": "999",
    "REV_AT_EPOCH": "34002",
    "BSTAR": "0.00015767",
    "MEAN_MOTION_DOT": "-0.00000025",
    "MEAN_MOTION_DDOT": "0",
    "FILE": "3894260",
    "TLE_LINE0": "0 JASON 3",
    "TLE_LINE1": "1 41240U 16002A   23116.63878319 -.00000025  00000-0  15767-3 0  9995",
    "TLE_LINE2": "2 41240  66.0441 358.5835 0007681 273.6388  86.3749 12.80929861340022",
    "OBJECT_ID": "2016-002A",
    "OBJECT_NUMBER": "41240",
    "SEMIMAJOR_AXIS": "7715.871",
    "PERIOD": "112.418",
    "APOGEE": "1343.662",
    "PERIGEE": "1331.809",
    "DECAYED": "0"
  },
  {
    "COMMENT": "GENERATED VIA SPACETRACK.ORG API",
    "ORIGINATOR": "18 SPCS",
    "NORAD_CAT_ID": "41240",
    "OBJECT_NAME": "JASON 3",
    "OBJECT_TYPE": "PAYLOAD",
    "CLASSIFICATION_TYPE": "U",
    "INTLDES": "16002A",
    "EPOCH": "2023-04-26 20:57:08",
    "EPOCH_MICROSECONDS": "151264",
    "MEAN_MOTION": "12.80929864",
    "ECCENTRICITY": "0.000768",
    "INCLINATION": "66.044",
    "RA_OF_ASC_NODE": "358.097",
    "ARG_OF_PERICENTER": "273.64",
    "MEAN_ANOMALY": "86.3737",
    "EPHEMERIS_TYPE": "0",
    "ELEMENT_SET_NO": "999",
    "REV_AT_EPOCH": "34005",
    "BSTAR": "0.00013144",
    "MEAN_MOTION_DOT": "-0.00000031",
    "MEAN_MOTION_DDOT": "0",
    "FILE": "3894261",
    "TLE_LINE0": "0 JASON 3",
    "TLE_LINE1": "1 41240U 16002A   23116.87301101 -.00000031  00000-0  13144-3 0  9995",
    "TLE_LINE2": "2 41240  66.0440 358.0970 0007680 273.6400  86.3737 12.80929864340053",
    "OBJECT_ID": "2016-002A",
    "OBJECT_NUMBER": "41240",
    "SEMIMAJOR_AXIS": "7715.871",
    "PERIOD": "112.418",
    "APOGEE": "1343.661",
    "PERIGEE": "1331.810",
    "DECAYED": "0"
  },
  {
    "COMMENT": "GENERATED VIA SPACETRACK.ORG API",
    "ORIGINATOR": "18 SPCS",
    "NORAD_CAT_ID": "41240",
    "OBJECT_NAME": "JASON 3",
    "OBJECT_TYPE": "PAYLOAD",
    "CLASSIFICATION_TYPE": "U",
    "INTLDES": "16002A",
    "EPOCH": "2023-04-27 11:56:34",
    "EPOCH_MICROSECONDS": "245312",
    "MEAN_MOTION": "12.80929942",
    "ECCENTRICITY": "0.0007671",
    "INCLINATION": "66.044",
    "RA_OF_ASC_NODE": "356.7998",
    "ARG_OF_PERICENTER": "273.6125",
    "MEAN_ANOMALY": "86.4013",
    "EPHEMERIS_TYPE": "0",
    "ELEMENT_SET_NO": "999",
    "REV_AT_EPOCH": "34027",
    "BSTAR": "0.00016147",
    "MEAN_MOTION_DOT": "-0.00000024",
    "MEAN_MOTION_DDOT": "0",
    "FILE": "3894694",
    "TLE_LINE0": "0 JASON 3",
    "TLE_LINE1": "1 41240U 16002A   23117.49761858 -.00000024  00000-0  16147-3 0  9991",
    "TLE_LINE2": "2 41240  66.0440 356.7998 0007671 273.6125  86.4013 12.80929942340271",
    "OBJECT_ID": "2016-002A",
    "OBJECT_NUMBER": "41240",
    "SEMIMAJOR_AXIS": "7715.870",
    "PERIOD": "112.418",
    "APOGEE": "1343.654",
    "PERIGEE": "1331.817",
    "DECAYED": "0"
  },
  {
    "COMMENT": "GENERATED VIA SPACETRACK.ORG API",
    "ORIGINATOR": "18 SPCS",
    "NORAD_CAT_ID": "41240",
    "OBJECT_NAME": "JASON 3",
    "OBJECT_TYPE": "PAYLOAD",
    "CLASSIFICATION_TYPE": "U",
    "INTLDES": "16002A",
    "EPOCH": "2023-04-27 13:49:00",
    "EPOCH_MICROSECONDS": "6528",
    "MEAN_MOTION": "12.80929961",
    "ECCENTRICITY": "0.0007669",
    "INCLINATION": "66.044",
    "RA_OF_ASC_NODE": "356.6377",
    "ARG_OF_PERICENTER": "273.5933",
    "MEAN_ANOMALY": "86.4205",
    "EPHEMERIS_TYPE": "0",
    "ELEMENT_SET_NO": "999",
    "REV_AT_EPOCH": "34014",
    "BSTAR": "0.0001787",
    "MEAN_MOTION_DOT": "-0.0000002",
    "MEAN_MOTION_DDOT": "0",
    "FILE": "3894751",
    "TLE_LINE0": "0 JASON 3",
    "TLE_LINE1": "1 41240U 16002A   23117.57569452 -.00000020  00000-0  17870-3 0  9996",
    "TLE_LINE2": "2 41240  66.0440 356.6377 0007669 273.5933  86.4205 12.80929961340144",
    "OBJECT_ID": "2016-002A",
    "OBJECT_NUMBER": "41240",
    "SEMIMAJOR_AXIS": "7715.870",
    "PERIOD": "112.418",
    "APOGEE": "1343.653",
    "PERIGEE": "1331.818",
    "DECAYED": "0"
  }
]